[Satellite]
VERSION=1.1
NAME=VCC C
NICKNAME=VCC C
TLE1=1 44430U 98067QQ  20157.65648936  .00011025  00000-0  14433-3 0  9994
TLE2=2 44430  51.6398  32.6887 0001039 310.6652  49.4250 15.59154326 51527
STATUS=0
